ONEWEB-0395             
1 50475U 21132G   25245.98600434  .00000652  00000+0  18029-2 0  9996
2 50475  87.8772  78.3067 0001786  96.8726 263.2606 13.11417601178076
ONEWEB-0396             
1 50476U 21132H   25246.12631157  .00000066  00000+0  13448-3 0  9990
2 50476  87.9171  32.4542 0001871  95.3784 264.7562 13.18686508183808
ONEWEB-0397             
1 50477U 21132J   25246.14115237 -.00000036  00000+0 -12504-3 0  9990
2 50477  87.9170  32.4524 0001896  90.4604 269.6746 13.18684193183785
ONEWEB-0398             
1 50478U 21132K   25246.03007648 -.00000433  00000+0 -12577-2 0  9995
2 50478  87.8782  78.2627 0001471 100.8129 259.3164 13.11417161177979
ONEWEB-0399             
1 50479U 21132L   25246.24542242  .00000588  00000+0  16235-2 0  9997
2 50479  87.8767  78.2419 0002182  87.5157 272.6221 13.11415260177996
ONEWEB-0400             
1 50480U 21132M   25246.11970508 -.00000047  00000+0 -15179-3 0  9994
2 50480  87.9167  32.4467 0001643 101.6681 258.4636 13.18684587183771
ONEWEB-0401             
1 50481U 21132N   25246.16426027 -.00000050  00000+0 -15959-3 0  9992
2 50481  87.9171  32.4342 0001763  88.6274 271.5061 13.18685203183789
ONEWEB-0402             
1 50482U 21132P   25246.12796369  .00000001  00000+0 -31033-4 0  9995
2 50482  87.9169  32.4348 0001807  74.7015 285.4317 13.18683628183801
